STARLINK-3050
1 19180C 21082BC  21326.11252031 -.00036526  00000-0 -30613-3 0  3268
2 19180  69.9976 292.8551 0003673 286.0879  18.8536 15.69771509    13
